{
  "type": "FeatureCollection",
  "features": [
    {
      "type": "Feature",
      "properties": {
        "norad_id": 37836,
        "name": "EUTELSAT 16A",
        "group": "eutelsat",
        "lat": -0.05813103504875089,
        "lon": -62.30430177495859,
        "alt_km": 35763.729655043346,
        "timestamp": "2025-12-04T13:52:00.119291+00:00",
        "meta_object_name": "EUTELSAT 16A",
        "meta_object_id": "2011-057A",
        "meta_epoch": "2025-12-04T05:14:26.479392",
        "meta_mean_motion": 1.00273404,
        "meta_eccentricity": 0.00065414,
        "meta_inclination": 0.059,
        "meta_ra_of_asc_node": 348.1089,
        "meta_arg_of_pericenter": 271.7359,
        "meta_mean_anomaly": 268.0791,
        "meta_ephemeris_type": 0,
        "meta_classification_type": "U",
        "meta_norad_cat_id": 37836,
        "meta_element_set_no": 999,
        "meta_rev_at_epoch": 537,
        "meta_bstar": 0,
        "meta_mean_motion_dot": 1.2e-06,
        "meta_mean_motion_ddot": 0,
        "tle_line1": "1 37836U 11057A   25338.21836203  .00000120  00000+0  00000+0 0  9998",
        "tle_line2": "2 37836   0.0590 348.1089 0006541 271.7359 268.0791  1.00273404  5375"
      },
      "geometry": {
        "type": "Point",
        "coordinates": [
          -62.30430177495859,
          -0.05813103504875089
        ]
      }
    },
    {
      "type": "Feature",
      "properties": {
        "norad_id": 38992,
        "name": "EUTELSAT 21B",
        "group": "eutelsat",
        "lat": -0.057532186789460496,
        "lon": -56.725535283082834,
        "alt_km": 35773.962403067424,
        "timestamp": "2025-12-04T13:52:00.119303+00:00",
        "meta_object_name": "EUTELSAT 21B",
        "meta_object_id": "2012-062B",
        "meta_epoch": "2025-12-04T05:16:03.822816",
        "meta_mean_motion": 1.00274134,
        "meta_eccentricity": 0.0003375,
        "meta_inclination": 0.0676,
        "meta_ra_of_asc_node": 347.5432,
        "meta_arg_of_pericenter": 278.9429,
        "meta_mean_anomaly": 267.4453,
        "meta_ephemeris_type": 0,
        "meta_classification_type": "U",
        "meta_norad_cat_id": 38992,
        "meta_element_set_no": 999,
        "meta_rev_at_epoch": 4787,
        "meta_bstar": 0,
        "meta_mean_motion_dot": 1.46e-06,
        "meta_mean_motion_ddot": 0,
        "tle_line1": "1 38992U 12062B   25338.21948869  .00000146  00000+0  00000+0 0  9999",
        "tle_line2": "2 38992   0.0676 347.5432 0003375 278.9429 267.4453  1.00274134 47878"
      },
      "geometry": {
        "type": "Point",
        "coordinates": [
          -56.725535283082834,
          -0.057532186789460496
        ]
      }
    },
    {
      "type": "Feature",
      "properties": {
        "norad_id": 39020,
        "name": "EUTELSAT 70B",
        "group": "eutelsat",
        "lat": -0.0017963836134123243,
        "lon": -7.825808221637854,
        "alt_km": 35792.34315309859,
        "timestamp": "2025-12-04T13:52:00.119315+00:00",
        "meta_object_name": "EUTELSAT 70B",
        "meta_object_id": "2012-069A",
        "meta_epoch": "2025-12-03T18:55:38.052768",
        "meta_mean_motion": 1.00271658,
        "meta_eccentricity": 0.00043345,
        "meta_inclination": 0.0629,
        "meta_ra_of_asc_node": 2.7299,
        "meta_arg_of_pericenter": 239.4424,
        "meta_mean_anomaly": 185.1062,
        "meta_ephemeris_type": 0,
        "meta_classification_type": "U",
        "meta_norad_cat_id": 39020,
        "meta_element_set_no": 999,
        "meta_rev_at_epoch": 4755,
        "meta_bstar": 0,
        "meta_mean_motion_dot": -2.6e-07,
        "meta_mean_motion_ddot": 0,
        "tle_line1": "1 39020U 12069A   25337.78863487 -.00000026  00000+0  00000+0 0  9990",
        "tle_line2": "2 39020   0.0629   2.7299 0004334 239.4424 185.1062  1.00271658 47558"
      },
      "geometry": {
        "type": "Point",
        "coordinates": [
          -7.825808221637854,
          -0.0017963836134123243
        ]
      }
    },
    {
      "type": "Feature",
      "properties": {
        "norad_id": 39122,
        "name": "EUTELSAT 117 WEST A",
        "group": "eutelsat",
        "lat": -0.02153796360559302,
        "lon": 164.80703969462647,
        "alt_km": 35786.08291974488,
        "timestamp": "2025-12-04T13:52:00.119328+00:00",
        "meta_object_name": "EUTELSAT 117 WEST A",
        "meta_object_id": "2013-012A",
        "meta_epoch": "2025-12-04T05:41:31.309152",
        "meta_mean_motion": 1.00272356,
        "meta_eccentricity": 0.00032035,
        "meta_inclination": 0.0197,
        "meta_ra_of_asc_node": 312.7527,
        "meta_arg_of_pericenter": 302.8271,
        "meta_mean_anomaly": 146.3287,
        "meta_ephemeris_type": 0,
        "meta_classification_type": "U",
        "meta_norad_cat_id": 39122,
        "meta_element_set_no": 999,
        "meta_rev_at_epoch": 4647,
        "meta_bstar": 0,
        "meta_mean_motion_dot": 3e-08,
        "meta_mean_motion_ddot": 0,
        "tle_line1": "1 39122U 13012A   25338.23716793  .00000003  00000+0  00000+0 0  9994",
        "tle_line2": "2 39122   0.0197 312.7527 0003203 302.8271 146.3287  1.00272356 46472"
      },
      "geometry": {
        "type": "Point",
        "coordinates": [
          164.80703969462647,
          -0.02153796360559302
        ]
      }
    },
    {
      "type": "Feature",
      "properties": {
        "norad_id": 39163,
        "name": "EUTELSAT 7B",
        "group": "eutelsat",
        "lat": -0.0803359806077596,
        "lon": -71.39631694890056,
        "alt_km": 35770.086953371014,
        "timestamp": "2025-12-04T13:52:00.119341+00:00",
        "meta_object_name": "EUTELSAT 7B",
        "meta_object_id": "2013-022A",
        "meta_epoch": "2025-12-04T05:11:56.717952",
        "meta_mean_motion": 1.00269649,
        "meta_eccentricity": 0.00042596,
        "meta_inclination": 0.068,
        "meta_ra_of_asc_node": 1.8831,
        "meta_arg_of_pericenter": 309.1609,
        "meta_mean_anomaly": 207.2315,
        "meta_ephemeris_type": 0,
        "meta_classification_type": "U",
        "meta_norad_cat_id": 39163,
        "meta_element_set_no": 999,
        "meta_rev_at_epoch": 4600,
        "meta_bstar": 0,
        "meta_mean_motion_dot": 6.4e-07,
        "meta_mean_motion_ddot": 0,
        "tle_line1": "1 39163U 13022A   25338.21662868  .00000064  00000+0  00000+0 0  9998",
        "tle_line2": "2 39163   0.0680   1.8831 0004259 309.1609 207.2315  1.00269649 46004"
      },
      "geometry": {
        "type": "Point",
        "coordinates": [
          -71.39631694890056,
          -0.0803359806077596
        ]
      }
    },
    {
      "type": "Feature",
      "properties": {
        "norad_id": 39612,
        "name": "EXPRESS-AT1",
        "group": "eutelsat",
        "lat": 0.01840903660980822,
        "lon": -22.37219304376505,
        "alt_km": 35787.295051098,
        "timestamp": "2025-12-04T13:52:00.119353+00:00",
        "meta_object_name": "EXPRESS-AT1",
        "meta_object_id": "2014-010A",
        "meta_epoch": "2025-12-04T05:25:55.379424",
        "meta_mean_motion": 1.00270117,
        "meta_eccentricity": 1.861e-05,
        "meta_inclination": 0.0171,
        "meta_ra_of_asc_node": 304.1017,
        "meta_arg_of_pericenter": 217.9128,
        "meta_mean_anomaly": 48.7701,
        "meta_ephemeris_type": 0,
        "meta_classification_type": "U",
        "meta_norad_cat_id": 39612,
        "meta_element_set_no": 999,
        "meta_rev_at_epoch": 4286,
        "meta_bstar": 0,
        "meta_mean_motion_dot": 9.5e-07,
        "meta_mean_motion_ddot": 0,
        "tle_line1": "1 39612U 14010A   25338.22633541  .00000095  00000+0  00000+0 0  9996",
        "tle_line2": "2 39612   0.0171 304.1017 0000186 217.9128  48.7701  1.00270117 42869"
      },
      "geometry": {
        "type": "Point",
        "coordinates": [
          -22.37219304376505,
          0.01840903660980822
        ]
      }
    },
    {
      "type": "Feature",
      "properties": {
        "norad_id": 39613,
        "name": "EXPRESS-AT2",
        "group": "eutelsat",
        "lat": 0.04716217514752199,
        "lon": 61.48749621292232,
        "alt_km": 35790.4086591347,
        "timestamp": "2025-12-04T13:52:00.119365+00:00",
        "meta_object_name": "EXPRESS-AT2",
        "meta_object_id": "2014-010B",
        "meta_epoch": "2025-12-04T07:32:36.708000",
        "meta_mean_motion": 1.00270269,
        "meta_eccentricity": 0.00015116,
        "meta_inclination": 0.0214,
        "meta_ra_of_asc_node": 337.5162,
        "meta_arg_of_pericenter": 316.7864,
        "meta_mean_anomaly": 32.0865,
        "meta_ephemeris_type": 0,
        "meta_classification_type": "U",
        "meta_norad_cat_id": 39613,
        "meta_element_set_no": 999,
        "meta_rev_at_epoch": 4254,
        "meta_bstar": 0,
        "meta_mean_motion_dot": 0,
        "meta_mean_motion_ddot": 0,
        "tle_line1": "1 39613U 14010B   25338.31431375  .00000000  00000+0  00000+0 0  9994",
        "tle_line2": "2 39613   0.0214 337.5162 0001511 316.7864  32.0865  1.00270269 42547"
      },
      "geometry": {
        "type": "Point",
        "coordinates": [
          61.48749621292232,
          0.04716217514752199
        ]
      }
    }
  ]
}